[{"OBJECT_NAME":"ICEYE-X7","OBJECT_ID":"2020-068L","EPOCH":"2026-03-09T22:52:28.702272","MEAN_MOTION":15.29152508,"ECCENTRICITY":0.00068409,"INCLINATION":97.7412,"RA_OF_ASC_NODE":31.2076,"ARG_OF_PERICENTER":332.3045,"MEAN_ANOMALY":27.7829,"EPHEMERIS_TYPE":0,"CLASSIFICATION_TYPE":"U","NORAD_CAT_ID":46496,"ELEMENT_SET_NO":999,"REV_AT_EPOCH":29961,"BSTAR":0.0005654802,"MEAN_MOTION_DOT":0.00015947,"MEAN_MOTION_DDOT":0},{"OBJECT_NAME":"STARLINK-34218","OBJECT_ID":"2025-124X","EPOCH":"2026-03-09T10:29:34.412640","MEAN_MOTION":15.27573221,"ECCENTRICITY":0.00014736,"INCLINATION":42.9984,"RA_OF_ASC_NODE":119.518,"ARG_OF_PERICENTER":257.4162,"MEAN_ANOMALY":102.6525,"EPHEMERIS_TYPE":0,"CLASSIFICATION_TYPE":"U","NORAD_CAT_ID":64338,"ELEMENT_SET_NO":999,"REV_AT_EPOCH":4178,"BSTAR":0.00082716922,"MEAN_MOTION_DOT":0.00022565,"MEAN_MOTION_DDOT":0}]
